{"type": "FeatureCollection", "features": [ {"type": "Feature", "properties": {"norad_id": 28659, "name": "DIRECTV 8", "group": "intelsat", "lat": 0.0023712125544489864, "lon": -156.1865249442289, "alt_km": 35780.69999083001, "timestamp": "2025-12-15T15:53:19.545896+00:00", "meta": {"OBJECT_NAME": "DIRECTV 8", "OBJECT_ID": "2005-019A", "EPOCH": "2025-12-14T09:56:38.487840", "MEAN_MOTION": 1.00272293, "ECCENTRICITY": 0.00029444, "INCLINATION": 0.0271, "RA_OF_ASC_NODE": 73.128, "ARG_OF_PERICENTER": 196.2382, "MEAN_ANOMALY": 204.0852, "EPHEMERIS_TYPE": 0, "CLASSIFICATION_TYPE": "U", "NORAD_CAT_ID": 28659, "ELEMENT_SET_NO": 999, "REV_AT_EPOCH": 7522, "BSTAR": 0, "MEAN_MOTION_DOT": 1.9e-07, "MEAN_MOTION_DDOT": 0}, "tle": {"line1": "1 28659U 05019A   25348.41433435  .00000019  00000+0  00000+0 0  9992", "line2": "2 28659   0.0271  73.1280 0002944 196.2382 204.0852  1.00272293 75226"}}, "geometry": {"type": "Point", "coordinates": [-156.1865249442289, 0.0023712125544489864]}}, {"type": "Feature", "properties": {"norad_id": 28702, "name": "GALAXY 28 (G-28)", "group": "intelsat", "lat": 1.2634565072172652, "lon": -125.79320220754249, "alt_km": 35776.09667197989, "timestamp": "2025-12-15T15:53:19.545907+00:00", "meta": {"OBJECT_NAME": "GALAXY 28 (G-28)", "OBJECT_ID": "2005-022A", "EPOCH": "2025-12-14T21:33:29.427264", "MEAN_MOTION": 1.00271374, "ECCENTRICITY": 0.00028519, "INCLINATION": 2.8246, "RA_OF_ASC_NODE": 81.2568, "ARG_OF_PERICENTER": 187.2393, "MEAN_ANOMALY": 49.997, "EPHEMERIS_TYPE": 0, "CLASSIFICATION_TYPE": "U", "NORAD_CAT_ID": 28702, "ELEMENT_SET_NO": 999, "REV_AT_EPOCH": 5012, "BSTAR": 0, "MEAN_MOTION_DOT": -1.69e-06, "MEAN_MOTION_DDOT": 0}, "tle": {"line1": "1 28702U 05022A   25348.89825726 -.00000169  00000+0  00000+0 0  9992", "line2": "2 28702   2.8246  81.2568 0002851 187.2393  49.9970  1.00271374 50123"}}, "geometry": {"type": "Point", "coordinates": [-125.79320220754249, 1.2634565072172652]}}, {"type": "Feature", "properties": {"norad_id": 29236, "name": "GALAXY 16 (G-16)", "group": "intelsat", "lat": 0.01458143558239387, "lon": -136.135132020767, "alt_km": 35778.14210125683, "timestamp": "2025-12-15T15:53:19.545918+00:00", "meta": {"OBJECT_NAME": "GALAXY 16 (G-16)", "OBJECT_ID": "2006-023A", "EPOCH": "2025-12-14T21:30:29.714400", "MEAN_MOTION": 1.00272377, "ECCENTRICITY": 0.00024685, "INCLINATION": 0.0467, "RA_OF_ASC_NODE": 146.4142, "ARG_OF_PERICENTER": 119.3284, "MEAN_ANOMALY": 41.6881, "EPHEMERIS_TYPE": 0, "CLASSIFICATION_TYPE": "U", "NORAD_CAT_ID": 29236, "ELEMENT_SET_NO": 999, "REV_AT_EPOCH": 7112, "BSTAR": 0, "MEAN_MOTION_DOT": -1.07e-06, "MEAN_MOTION_DDOT": 0}, "tle": {"line1": "1 29236U 06023A   25348.89617725 -.00000107  00000+0  00000+0 0  9997", "line2": "2 29236   0.0467 146.4142 0002468 119.3284  41.6881  1.00272377 71129"}}, "geometry": {"type": "Point", "coordinates": [-136.135132020767, 0.01458143558239387]}}, {"type": "Feature", "properties": {"norad_id": 29494, "name": "DIRECTV 9S", "group": "intelsat", "lat": 1.2703373843664194, "lon": -138.33222131197581, "alt_km": 35777.37926772787, "timestamp": "2025-12-15T15:53:19.545929+00:00", "meta": {"OBJECT_NAME": "DIRECTV 9S", "OBJECT_ID": "2006-043A", "EPOCH": "2025-12-14T21:29:52.273824", "MEAN_MOTION": 1.00271938, "ECCENTRICITY": 0.00029041, "INCLINATION": 1.9457, "RA_OF_ASC_NODE": 83.1896, "ARG_OF_PERICENTER": 184.7766, "MEAN_ANOMALY": 37.0977, "EPHEMERIS_TYPE": 0, "CLASSIFICATION_TYPE": "U", "NORAD_CAT_ID": 29494, "ELEMENT_SET_NO": 999, "REV_AT_EPOCH": 4953, "BSTAR": 0, "MEAN_MOTION_DOT": -9.4e-07, "MEAN_MOTION_DDOT": 0}, "tle": {"line1": "1 29494U 06043A   25348.89574391 -.00000094  00000+0  00000+0 0  9991", "line2": "2 29494   1.9457  83.1896 0002904 184.7766  37.0977  1.00271938 49530"}}, "geometry": {"type": "Point", "coordinates": [-138.33222131197581, 1.2703373843664194]}}, {"type": "Feature", "properties": {"norad_id": 31307, "name": "GALAXY 17 (G-17)", "group": "intelsat", "lat": 1.0108295840573622, "lon": -122.0798642984554, "alt_km": 35762.25056398961, "timestamp": "2025-12-15T15:53:19.545941+00:00", "meta": {"OBJECT_NAME": "GALAXY 17 (G-17)", "OBJECT_ID": "2007-016B", "EPOCH": "2025-12-14T21:34:29.331840", "MEAN_MOTION": 1.00272267, "ECCENTRICITY": 0.0005675, "INCLINATION": 2.5056, "RA_OF_ASC_NODE": 82.2617, "ARG_OF_PERICENTER": 166.2186, "MEAN_ANOMALY": 73.9758, "EPHEMERIS_TYPE": 0, "CLASSIFICATION_TYPE": "U", "NORAD_CAT_ID": 31307, "ELEMENT_SET_NO": 999, "REV_AT_EPOCH": 6795, "BSTAR": 0, "MEAN_MOTION_DOT": -1.88e-06, "MEAN_MOTION_DDOT": 0}, "tle": {"line1": "1 31307U 07016B   25348.89895060 -.00000188  00000+0  00000+0 0  9991", "line2": "2 31307   2.5056  82.2617 0005675 166.2186  73.9758  1.00272267 67956"}}, "geometry": {"type": "Point", "coordinates": [-122.0798642984554, 1.0108295840573622]}}, {"type": "Feature", "properties": {"norad_id": 31862, "name": "DIRECTV 10", "group": "intelsat", "lat": 0.005455855101846135, "lon": -139.9072619050683, "alt_km": 35784.96731340835, "timestamp": "2025-12-15T15:53:19.545952+00:00", "meta": {"OBJECT_NAME": "DIRECTV 10", "OBJECT_ID": "2007-032A", "EPOCH": "2025-12-14T21:29:22.322400", "MEAN_MOTION": 1.00270231, "ECCENTRICITY": 3.809e-05, "INCLINATION": 0.0158, "RA_OF_ASC_NODE": 173.0837, "ARG_OF_PERICENTER": 33.5452, "MEAN_ANOMALY": 96.7341, "EPHEMERIS_TYPE": 0, "CLASSIFICATION_TYPE": "U", "NORAD_CAT_ID": 31862, "ELEMENT_SET_NO": 999, "REV_AT_EPOCH": 4374, "BSTAR": 0, "MEAN_MOTION_DOT": -8.3e-07, "MEAN_MOTION_DDOT": 0}, "tle": {"line1": "1 31862U 07032A   25348.89539725 -.00000083  00000+0  00000+0 0  9992", "line2": "2 31862   0.0158 173.0837 0000380  33.5452  96.7341  1.00270231 43742"}}, "geometry": {"type": "Point", "coordinates": [-139.9072619050683, 0.005455855101846135]}}, {"type": "Feature", "properties": {"norad_id": 32253, "name": "INTELSAT 11 (IS-11)", "group": "intelsat", "lat": 3.071960230269835, "lon": 175.6123772997255, "alt_km": 36120.30462940626, "timestamp": "2025-12-15T15:53:19.545963+00:00", "meta": {"OBJECT_NAME": "INTELSAT 11 (IS-11)", "OBJECT_ID": "2007-044B", "EPOCH": "2025-12-14T17:52:28.096032", "MEAN_MOTION": 0.99049636, "ECCENTRICITY": 0.00087376, "INCLINATION": 3.0854, "RA_OF_ASC_NODE": 80.9547, "ARG_OF_PERICENTER": 166.7777, "MEAN_ANOMALY": 320.8919, "EPHEMERIS_TYPE": 0, "CLASSIFICATION_TYPE": "U", "NORAD_CAT_ID": 32253, "ELEMENT_SET_NO": 999, "REV_AT_EPOCH": 6662, "BSTAR": 0, "MEAN_MOTION_DOT": 6.4e-07, "MEAN_MOTION_DDOT": 0}, "tle": {"line1": "1 32253U 07044B   25348.74476963  .00000064  00000+0  00000+0 0  9996", "line2": "2 32253   3.0854  80.9547 0008737 166.7777 320.8919  0.99049636 66624"}}, "geometry": {"type": "Point", "coordinates": [175.6123772997255, 3.071960230269835]}}, {"type": "Feature", "properties": {"norad_id": 32388, "name": "HORIZONS-2", "group": "intelsat", "lat": 0.4865429379929369, "lon": -110.92082817876822, "alt_km": 35767.48364127767, "timestamp": "2025-12-15T15:53:19.545973+00:00", "meta": {"OBJECT_NAME": "HORIZONS-2", "OBJECT_ID": "2007-063B", "EPOCH": "2025-12-14T21:37:44.021280", "MEAN_MOTION": 1.00273662, "ECCENTRICITY": 0.00046397, "INCLINATION": 2.127, "RA_OF_ASC_NODE": 82.9437, "ARG_OF_PERICENTER": 189.2196, "MEAN_ANOMALY": 62.2823, "EPHEMERIS_TYPE": 0, "CLASSIFICATION_TYPE": "U", "NORAD_CAT_ID": 32388, "ELEMENT_SET_NO": 999, "REV_AT_EPOCH": 6596, "BSTAR": 0, "MEAN_MOTION_DOT": -2.35e-06, "MEAN_MOTION_DDOT": 0}, "tle": {"line1": "1 32388U 07063B   25348.90120395 -.00000235  00000+0  00000+0 0  9990", "line2": "2 32388   2.1270  82.9437 0004639 189.2196  62.2823  1.00273662 65965"}}, "geometry": {"type": "Point", "coordinates": [-110.92082817876822, 0.4865429379929369]}}, {"type": "Feature", "properties": {"norad_id": 32729, "name": "DIRECTV 11", "group": "intelsat", "lat": -0.019848743898597192, "lon": -136.29581783395966, "alt_km": 35784.69635656419, "timestamp": "2025-12-15T15:53:19.545984+00:00", "meta": {"OBJECT_NAME": "DIRECTV 11", "OBJECT_ID": "2008-013A", "EPOCH": "2025-12-14T19:47:32.076384", "MEAN_MOTION": 1.00271968, "ECCENTRICITY": 5.052e-05, "INCLINATION": 0.0429, "RA_OF_ASC_NODE": 161.019, "ARG_OF_PERICENTER": 12.4167, "MEAN_ANOMALY": 108.0014, "EPHEMERIS_TYPE": 0, "CLASSIFICATION_TYPE": "U", "NORAD_CAT_ID": 32729, "ELEMENT_SET_NO": 999, "REV_AT_EPOCH": 4374, "BSTAR": 0, "MEAN_MOTION_DOT": -1.06e-06, "MEAN_MOTION_DDOT": 0}, "tle": {"line1": "1 32729U 08013A   25348.82467681 -.00000106  00000+0  00000+0 0  9995", "line2": "2 32729   0.0429 161.0190 0000505  12.4167 108.0014  1.00271968 43745"}}, "geometry": {"type": "Point", "coordinates": [-136.29581783395966, -0.019848743898597192]}}, {"type": "Feature", "properties": {"norad_id": 32951, "name": "GALAXY 18 (G-18)", "group": "intelsat", "lat": -0.02299578780914345, "lon": -160.1681370573345, "alt_km": 35782.331995996974, "timestamp": "2025-12-15T15:53:19.545995+00:00", "meta": {"OBJECT_NAME": "GALAXY 18 (G-18)", "OBJECT_ID": "2008-024A", "EPOCH": "2025-12-14T21:23:37.872384", "MEAN_MOTION": 1.00271157, "ECCENTRICITY": 0.00028437, "INCLINATION": 0.0227, "RA_OF_ASC_NODE": 355.7402, "ARG_OF_PERICENTER": 275.3957, "MEAN_ANOMALY": 10.5563, "EPHEMERIS_TYPE": 0, "CLASSIFICATION_TYPE": "U", "NORAD_CAT_ID": 32951, "ELEMENT_SET_NO": 999, "REV_AT_EPOCH": 4400, "BSTAR": 0, "MEAN_MOTION_DOT": 0, "MEAN_MOTION_DDOT": 0}, "tle": {"line1": "1 32951U 08024A   25348.89141056  .00000000  00000+0  00000+0 0  9998", "line2": "2 32951   0.0227 355.7402 0002843 275.3957  10.5563  1.00271157 44006"}}, "geometry": {"type": "Point", "coordinates": [-160.1681370573345, -0.02299578780914345]}}]}